[Satellite]
VERSION=1.1
NAME=AGILE
NICKNAME=AGILE
TLE1=1 31135U 07013A   15054.36800766  .00009551  00000-0  34315-3 0  9994
TLE2=2 31135   2.4675 183.9376 0015458 219.3989 140.4940 15.23483149434317
